#aV2022  6 11  0  0  0.00000000     288 DD+AD WGS84 FIT  NGA
## 2213 518400.00000000   300.00000000 59741 0.0000000000000
+   32     1  2  3  4  5  6  7  8  9 10 11 12 13 14 15 16 17
+         18 19 20 21 22 23 24 25 26 27 28 29 30 31 32  0  0
+          0  0  0  0  0  0  0  0  0  0  0  0  0  0  0  0  0
+          0  0  0  0  0  0  0  0  0  0  0  0  0  0  0  0  0
+          0  0  0  0  0  0  0  0  0  0  0  0  0  0  0  0  0
++         2  2  2  2  2  2  2  2  2  2  2  2  2  2  2  2  2
++         2  2  2  2  2  2  2  2  2  2  2  2  2  2  2  0  0
++         0  0  0  0  0  0  0  0  0  0  0  0  0  0  0  0  0
++         0  0  0  0  0  0  0  0  0  0  0  0  0  0  0  0  0
++         0  0  0  0  0  0  0  0  0  0  0  0  0  0  0  0  0
%c cc cc ccc ccc cccc cccc cccc cccc ccccc ccccc ccccc ccccc
%c cc cc ccc ccc cccc cccc cccc cccc ccccc ccccc ccccc ccccc
%f  0.0000000  0.000000000  0.00000000000  0.000000000000000
%f  0.0000000  0.000000000  0.00000000000  0.000000000000000
%i    0    0    0    0      0      0      0      0         0
%i    0    0    0    0      0      0      0      0         0
/*      NGA, ST. LOUIS,MO.                                  
/*   EPHEMERIS COMPUTED FROM 2 DAYS OF DATA                 
/*   EPOCHA v7 SMOOTHER                                     
/*   G2139 IERS2010 SATIGS SATAPC                           
*  2022  6 11 17 35  0.00000000
P  1  21385.908735  12844.403855   9308.284945    343.422357                    
V  1   7414.729408   9711.689163 -29138.962944     -0.079310                    
P  2 -12284.211408 -20756.361119  11594.253598   -652.768205                    
V  2  11981.686412   7162.598394  27197.359510      0.003156                    
P  3  13905.719056   5477.721479  21847.725032   -275.322288                    
V  3  -7088.662360  27052.716105  -2147.107640     -0.121905                    
P  4  23756.470769   2646.400095  11680.644772   -158.116681                    
V  4 -13827.671761   5724.934658  26761.955129      0.039979                    
P  5  -7480.189328 -19621.134270 -16343.474319    -85.164547                    
V  5   6135.347837 -19650.264399  21143.786067     -0.013841                    
P  6   1629.212726 -17185.696664  20222.210162    339.565199                    
V  6  18696.497997  17355.568653  13358.895727      0.154222                    
P  7  17837.252383  -1774.942924 -19345.767951    321.879116                    
V  7  17159.663938  18673.246823  13330.322440     -0.004269                    
P  8  18288.397878   7508.496327 -17946.109634    -71.740254                    
V  8 -21207.697326   7826.997607 -18032.633009     -0.015918                    
P  9  25757.920388  -6174.099621   2095.519111   -329.253504                    
V  9  -1762.587869   3662.445438  31437.677533      0.033004                    
P 10 -11491.361211  22219.368897  -8324.813216   -450.910713                    
V 10    270.809842 -11119.648779 -29818.352714     -0.150113                    
P 11 -10284.101933 -22115.455007  10534.376841    -15.839325                    
V 11  10788.060922   8259.507817  27837.988716      0.028431                    
P 12 -11857.674555 -10319.432342  21159.855031   -229.572586                    
V 12   9243.993496 -25851.162295  -7228.463367     -0.058702                    
P 13  -8737.346211 -13571.054779 -21277.392951    328.117616                    
V 13  26281.141122  -4168.843185  -8019.970826      0.069449                    
P 14  13205.254833 -20997.143180  -9365.032559   -111.290184                    
V 14   -681.084285  12250.054559 -28518.993334     -0.007813                    
P 15 -19554.776952  -5924.824535 -17542.199286    -54.034842                    
V 15  19018.180596 -10117.763922 -17902.849213      0.029791                    
P 16   1518.331373  22890.982475 -13249.443629   -508.198272                    
V 16  -7683.459332  14825.410814  25698.757270     -0.028057                    
P 17  18271.144559 -13609.958130  14124.301871    623.796608                    
V 17  17108.255679  -2021.964928 -24792.728910      0.046099                    
P 18 -17543.287010   1537.555383 -19928.944131    145.009620                    
V 18 -16950.882456 -18692.241893  13374.545225     -0.107169                    
P 19  10873.722009 -14735.709761  18895.707696    169.368482                    
V 19  24461.413030  -2719.001398 -16190.381520      0.049970                    
P 20  -1898.456327 -25935.189712  -5968.320634    512.268828                    
V 20   3734.106028  -7234.630311  30001.550301     -0.032661                    
P 21  20900.308792  16996.331850    484.893658    161.309704                    
V 21  -1558.745916   1627.212672 -31289.361291      0.000133                    
P 22  -7451.299114  15874.342150  20315.558047    274.125999                    
V 22 -24686.126196   3619.477394 -12308.396660      0.062760                    
P 23 -15082.086553  13693.640453 -16996.027911    -27.439482                    
V 23   3163.760446 -21414.095260 -20175.851519     -0.021387                    
P 24 -22226.350379 -14101.153217   4638.593010    222.933468                    
V 24  -2678.198585  -6488.063290 -30151.513718     -0.082694                    
P 25 -15994.991381   5620.117012  20089.875358    336.123105                    
V 25   5152.804282 -25758.162952  11414.849404      0.046387                    
P 26  -3550.054758  26069.150737  -2158.083042    211.694408                    
V 26  -4242.884480   1883.615972  31275.263731      0.024109                    
P 27   5296.939823  14155.397397 -22066.396655    214.513748                    
V 27 -26455.525494   7342.448435  -1273.383892      0.035903                    
P 28   8961.232689 -25133.630118     88.483829    340.199234                    
V 28   2076.408740   1278.491685 -31774.201452     -0.070041                    
P 29 -26227.806957   4088.770712   1659.296081   -523.031882                    
V 29   1705.809041  -2511.311756  32046.539189     -0.038457                    
P 30  10690.726124 -11525.505961 -21316.557030   -531.062717                    
V 30  19381.290864  19334.537832   -983.516392     -0.011872                    
P 31     -6.530566  18759.575073  18486.916043   -181.395856                    
V 31 -17998.621689 -15873.454780  16444.965582     -0.015610                    
P 32 -15361.790503  15500.200147  15153.923481   -148.760251                    
V 32 -18925.764109   3174.337846 -22837.791771     -0.092849                    
EOF
